{
  "type": "FeatureCollection",
  "features": [
    {
      "type": "Feature",
      "properties": {
        "norad_id": 66541,
        "name": "STARLINK-35796",
        "group": "last-30-days",
        "lat": -33.383892733435154,
        "lon": -20.687353599421183,
        "alt_km": 346.371814486909,
        "timestamp": "2025-12-02T13:52:16.065795+00:00",
        "meta_object_name": "STARLINK-35796",
        "meta_object_id": "2025-265AB",
        "meta_epoch": "2025-12-02T06:00:02.999808",
        "meta_mean_motion": 15.7501986,
        "meta_eccentricity": 0.00017827,
        "meta_inclination": 42.9998,
        "meta_ra_of_asc_node": 116.2962,
        "meta_arg_of_pericenter": 255.7576,
        "meta_mean_anomaly": 276.3552,
        "meta_ephemeris_type": 0,
        "meta_classification_type": "U",
        "meta_norad_cat_id": 66541,
        "meta_element_set_no": 999,
        "meta_rev_at_epoch": 330,
        "meta_bstar": 2.5011276e-05,
        "meta_mean_motion_dot": 3.363e-05,
        "meta_mean_motion_ddot": 0,
        "tle_line1": "1 66541U 25265AB  25336.25003472  .00003363  00000+0  25011-4 0  9991",
        "tle_line2": "2 66541  42.9998 116.2962 0001782 255.7576 276.3552 15.75019860  3305"
      },
      "geometry": {
        "type": "Point",
        "coordinates": [
          -20.687353599421183,
          -33.383892733435154
        ]
      }
    },
    {
      "type": "Feature",
      "properties": {
        "norad_id": 66542,
        "name": "STARLINK-35833",
        "group": "last-30-days",
        "lat": -34.29230594174462,
        "lon": -18.65641588225764,
        "alt_km": 346.3667493880048,
        "timestamp": "2025-12-02T13:52:16.065805+00:00",
        "meta_object_name": "STARLINK-35833",
        "meta_object_id": "2025-265AC",
        "meta_epoch": "2025-12-02T06:00:02.999808",
        "meta_mean_motion": 15.75004935,
        "meta_eccentricity": 0.00018311,
        "meta_inclination": 42.9996,
        "meta_ra_of_asc_node": 116.2915,
        "meta_arg_of_pericenter": 259.3006,
        "meta_mean_anomaly": 274.7339,
        "meta_ephemeris_type": 0,
        "meta_classification_type": "U",
        "meta_norad_cat_id": 66542,
        "meta_element_set_no": 999,
        "meta_rev_at_epoch": 330,
        "meta_bstar": 0.00033584549,
        "meta_mean_motion_dot": 0.0005135,
        "meta_mean_motion_ddot": 0,
        "tle_line1": "1 66542U 25265AC  25336.25003472  .00051350  00000+0  33585-3 0  9995",
        "tle_line2": "2 66542  42.9996 116.2915 0001831 259.3006 274.7339 15.75004935  3307"
      },
      "geometry": {
        "type": "Point",
        "coordinates": [
          -18.65641588225764,
          -34.29230594174462
        ]
      }
    },
    {
      "type": "Feature",
      "properties": {
        "norad_id": 66543,
        "name": "STARLINK-35315",
        "group": "last-30-days",
        "lat": -35.16314685609119,
        "lon": -16.590826790345947,
        "alt_km": 346.42526918334715,
        "timestamp": "2025-12-02T13:52:16.065814+00:00",
        "meta_object_name": "STARLINK-35315",
        "meta_object_id": "2025-265AD",
        "meta_epoch": "2025-12-02T06:00:02.999808",
        "meta_mean_motion": 15.75037208,
        "meta_eccentricity": 0.00018477,
        "meta_inclination": 42.9997,
        "meta_ra_of_asc_node": 116.2863,
        "meta_arg_of_pericenter": 259.3019,
        "meta_mean_anomaly": 276.6373,
        "meta_ephemeris_type": 0,
        "meta_classification_type": "U",
        "meta_norad_cat_id": 66543,
        "meta_element_set_no": 999,
        "meta_rev_at_epoch": 320,
        "meta_bstar": -0.00015460391,
        "meta_mean_motion_dot": -0.00024157,
        "meta_mean_motion_ddot": 0,
        "tle_line1": "1 66543U 25265AD  25336.25003472 -.00024157  00000+0 -15460-3 0  9995",
        "tle_line2": "2 66543  42.9997 116.2863 0001847 259.3019 276.6373 15.75037208  3209"
      },
      "geometry": {
        "type": "Point",
        "coordinates": [
          -16.590826790345947,
          -35.16314685609119
        ]
      }
    },
    {
      "type": "Feature",
      "properties": {
        "norad_id": 66544,
        "name": "STARLINK-35728",
        "group": "last-30-days",
        "lat": -35.99924822201144,
        "lon": -14.47674055773998,
        "alt_km": 346.52801466675464,
        "timestamp": "2025-12-02T13:52:16.065827+00:00",
        "meta_object_name": "STARLINK-35728",
        "meta_object_id": "2025-265AE",
        "meta_epoch": "2025-12-02T06:00:02.999808",
        "meta_mean_motion": 15.750364,
        "meta_eccentricity": 0.00017504,
        "meta_inclination": 42.9995,
        "meta_ra_of_asc_node": 116.2817,
        "meta_arg_of_pericenter": 262.7354,
        "meta_mean_anomaly": 275.119,
        "meta_ephemeris_type": 0,
        "meta_classification_type": "U",
        "meta_norad_cat_id": 66544,
        "meta_element_set_no": 999,
        "meta_rev_at_epoch": 330,
        "meta_bstar": -9.5272314e-05,
        "meta_mean_motion_dot": -0.00015085,
        "meta_mean_motion_ddot": 0,
        "tle_line1": "1 66544U 25265AE  25336.25003472 -.00015085  00000+0 -95272-4 0  9996",
        "tle_line2": "2 66544  42.9995 116.2817 0001750 262.7354 275.1190 15.75036400  3305"
      },
      "geometry": {
        "type": "Point",
        "coordinates": [
          -14.47674055773998,
          -35.99924822201144
        ]
      }
    },
    {
      "type": "Feature",
      "properties": {
        "norad_id": 66545,
        "name": "SHIJIAN-30A",
        "group": "last-30-days",
        "lat": -37.73422076961424,
        "lon": -121.99331860328041,
        "alt_km": 523.9995492056623,
        "timestamp": "2025-12-02T13:52:16.065839+00:00",
        "meta_object_name": "SHIJIAN-30A",
        "meta_object_id": "2025-266A",
        "meta_epoch": "2025-12-02T04:56:24.664992",
        "meta_mean_motion": 15.15298193,
        "meta_eccentricity": 0.00127442,
        "meta_inclination": 51.7993,
        "meta_ra_of_asc_node": 22.2044,
        "meta_arg_of_pericenter": 318.7753,
        "meta_mean_anomaly": 41.226,
        "meta_ephemeris_type": 0,
        "meta_classification_type": "U",
        "meta_norad_cat_id": 66545,
        "meta_element_set_no": 999,
        "meta_rev_at_epoch": 198,
        "meta_bstar": 0.00076763684,
        "meta_mean_motion_dot": 0.00014383,
        "meta_mean_motion_ddot": 0,
        "tle_line1": "1 66545U 25266A   25336.20584103  .00014383  00000+0  76764-3 0  9990",
        "tle_line2": "2 66545  51.7993  22.2044 0012744 318.7753  41.2260 15.15298193  1985"
      },
      "geometry": {
        "type": "Point",
        "coordinates": [
          -121.99331860328041,
          -37.73422076961424
        ]
      }
    },
    {
      "type": "Feature",
      "properties": {
        "norad_id": 66546,
        "name": "SHIJIAN-30B",
        "group": "last-30-days",
        "lat": -34.1710484222301,
        "lon": -127.210450336393,
        "alt_km": 524.7239794621692,
        "timestamp": "2025-12-02T13:52:16.065849+00:00",
        "meta_object_name": "SHIJIAN-30B",
        "meta_object_id": "2025-266B",
        "meta_epoch": "2025-12-02T04:57:54.313632",
        "meta_mean_motion": 15.15354686,
        "meta_eccentricity": 0.00104153,
        "meta_inclination": 51.7976,
        "meta_ra_of_asc_node": 22.2095,
        "meta_arg_of_pericenter": 321.6904,
        "meta_mean_anomaly": 38.3331,
        "meta_ephemeris_type": 0,
        "meta_classification_type": "U",
        "meta_norad_cat_id": 66546,
        "meta_element_set_no": 999,
        "meta_rev_at_epoch": 198,
        "meta_bstar": 0.00088804892,
        "meta_mean_motion_dot": 0.0001671,
        "meta_mean_motion_ddot": 0,
        "tle_line1": "1 66546U 25266B   25336.20687863  .00016710  00000+0  88805-3 0  9993",
        "tle_line2": "2 66546  51.7976  22.2095 0010415 321.6904  38.3331 15.15354686  1983"
      },
      "geometry": {
        "type": "Point",
        "coordinates": [
          -127.210450336393,
          -34.1710484222301
        ]
      }
    },
    {
      "type": "Feature",
      "properties": {
        "norad_id": 66547,
        "name": "SHIJIAN-30C",
        "group": "last-30-days",
        "lat": -31.28949936272791,
        "lon": -130.9252541037667,
        "alt_km": 524.0358515777198,
        "timestamp": "2025-12-02T13:52:16.065859+00:00",
        "meta_object_name": "SHIJIAN-30C",
        "meta_object_id": "2025-266C",
        "meta_epoch": "2025-12-02T04:59:02.135040",
        "meta_mean_motion": 15.15396644,
        "meta_eccentricity": 0.00113228,
        "meta_inclination": 51.7988,
        "meta_ra_of_asc_node": 22.215,
        "meta_arg_of_pericenter": 313.9309,
        "meta_mean_anomaly": 46.0732,
        "meta_ephemeris_type": 0,
        "meta_classification_type": "U",
        "meta_norad_cat_id": 66547,
        "meta_element_set_no": 999,
        "meta_rev_at_epoch": 198,
        "meta_bstar": 0.00076968455,
        "meta_mean_motion_dot": 0.00014457,
        "meta_mean_motion_ddot": 0,
        "tle_line1": "1 66547U 25266C   25336.20766360  .00014457  00000+0  76968-3 0  9997",
        "tle_line2": "2 66547  51.7988  22.2150 0011322 313.9309  46.0732 15.15396644  1981"
      },
      "geometry": {
        "type": "Point",
        "coordinates": [
          -130.9252541037667,
          -31.28949936272791
        ]
      }
    }
  ]
}